[{"OBJECT_NAME":"YAOGAN-9 01B","OBJECT_ID":"2010-009B","EPOCH":"2026-03-09T21:36:43.133472","MEAN_MOTION":13.45689777,"ECCENTRICITY":0.05298959,"INCLINATION":63.3654,"RA_OF_ASC_NODE":254.758,"ARG_OF_PERICENTER":20.1216,"MEAN_ANOMALY":341.9863,"EPHEMERIS_TYPE":0,"CLASSIFICATION_TYPE":"U","NORAD_CAT_ID":36414,"ELEMENT_SET_NO":999,"REV_AT_EPOCH":78638,"BSTAR":7.8644801e-5,"MEAN_MOTION_DOT":1.9e-7,"MEAN_MOTION_DDOT":0},{"OBJECT_NAME":"METEOR 2-17 DEB","OBJECT_ID":"1988-005U","EPOCH":"2026-02-27T22:37:23.016000","MEAN_MOTION":14.06133981,"ECCENTRICITY":0.000465,"INCLINATION":82.5174,"RA_OF_ASC_NODE":313.3526,"ARG_OF_PERICENTER":102.6899,"MEAN_ANOMALY":257.4793,"EPHEMERIS_TYPE":0,"CLASSIFICATION_TYPE":"U","NORAD_CAT_ID":31399,"ELEMENT_SET_NO":999,"REV_AT_EPOCH":6405,"BSTAR":0.0016617,"MEAN_MOTION_DOT":2.745e-5,"MEAN_MOTION_DDOT":0}]
